[{"OBJECT_NAME":"QIANFAN-53","OBJECT_ID":"2024-232T","EPOCH":"2026-03-09T22:56:18.814848","MEAN_MOTION":13.51004244,"ECCENTRICITY":0.00126691,"INCLINATION":89.0069,"RA_OF_ASC_NODE":32.4163,"ARG_OF_PERICENTER":308.0126,"MEAN_ANOMALY":51.9881,"EPHEMERIS_TYPE":0,"CLASSIFICATION_TYPE":"U","NORAD_CAT_ID":62254,"ELEMENT_SET_NO":999,"REV_AT_EPOCH":7968,"BSTAR":0.00014932043,"MEAN_MOTION_DOT":1.08e-6,"MEAN_MOTION_DDOT":0},{"OBJECT_NAME":"DELTA 1 DEB","OBJECT_ID":"1975-052DA","EPOCH":"2026-03-09T08:59:48.101856","MEAN_MOTION":13.6294663,"ECCENTRICITY":0.006024,"INCLINATION":99.408,"RA_OF_ASC_NODE":32.2417,"ARG_OF_PERICENTER":56.4268,"MEAN_ANOMALY":95.5339,"EPHEMERIS_TYPE":0,"CLASSIFICATION_TYPE":"U","NORAD_CAT_ID":21380,"ELEMENT_SET_NO":999,"REV_AT_EPOCH":72501,"BSTAR":0.00099211828,"MEAN_MOTION_DOT":7.43e-6,"MEAN_MOTION_DDOT":0}]
